[{"OBJECT_NAME":"OBJECT Z","OBJECT_ID":"2025-313Z","EPOCH":"2026-03-09T23:02:13.726176","MEAN_MOTION":15.20703812,"ECCENTRICITY":0.00148585,"INCLINATION":97.4007,"RA_OF_ASC_NODE":145.164,"ARG_OF_PERICENTER":355.5095,"MEAN_ANOMALY":4.6005,"EPHEMERIS_TYPE":0,"CLASSIFICATION_TYPE":"U","NORAD_CAT_ID":67271,"ELEMENT_SET_NO":999,"REV_AT_EPOCH":1085,"BSTAR":0.00029410612,"MEAN_MOTION_DOT":6.416e-5,"MEAN_MOTION_DDOT":0},{"OBJECT_NAME":"OKEAN-2","OBJECT_ID":"1990-018A","EPOCH":"2026-03-09T23:36:10.183680","MEAN_MOTION":15.15649196,"ECCENTRICITY":0.00049727,"INCLINATION":82.5017,"RA_OF_ASC_NODE":331.5686,"ARG_OF_PERICENTER":303.4328,"MEAN_ANOMALY":67.9927,"EPHEMERIS_TYPE":0,"CLASSIFICATION_TYPE":"U","NORAD_CAT_ID":20510,"ELEMENT_SET_NO":999,"REV_AT_EPOCH":93903,"BSTAR":0.00028442133,"MEAN_MOTION_DOT":5.437e-5,"MEAN_MOTION_DDOT":0}]
